{
  "type": "FeatureCollection",
  "features": [
    {
      "type": "Feature",
      "properties": {
        "norad_id": 66052,
        "name": "HRC MONOBLOCK CAMERA",
        "group": "stations",
        "lat": -36.81344250949371,
        "lon": 120.68639087113456,
        "alt_km": 411.6535922059329,
        "timestamp": "2025-12-09T14:52:24.959027+00:00",
        "meta_object_name": "HRC MONOBLOCK CAMERA",
        "meta_object_id": "1998-067XR",
        "meta_epoch": "2025-12-09T02:44:20.184864",
        "meta_mean_motion": 15.53759866,
        "meta_eccentricity": 0.00038484,
        "meta_inclination": 51.6287,
        "meta_ra_of_asc_node": 159.5802,
        "meta_arg_of_pericenter": 169.4423,
        "meta_mean_anomaly": 190.6649,
        "meta_ephemeris_type": 0,
        "meta_classification_type": "U",
        "meta_norad_cat_id": 66052,
        "meta_element_set_no": 999,
        "meta_rev_at_epoch": 827,
        "meta_bstar": 0.0006512568,
        "meta_mean_motion_dot": 0.00042294,
        "meta_mean_motion_ddot": 0,
        "tle_line1": "1 66052U 98067XR  25343.11412251  .00042294  00000+0  65126-3 0  9996",
        "tle_line2": "2 66052  51.6287 159.5802 0003848 169.4423 190.6649 15.53759866  8279"
      },
      "geometry": {
        "type": "Point",
        "coordinates": [
          120.68639087113456,
          -36.81344250949371
        ]
      }
    },
    {
      "type": "Feature",
      "properties": {
        "norad_id": 66174,
        "name": "HTV-X1",
        "group": "stations",
        "lat": -48.714213572622704,
        "lon": 42.387166563355855,
        "alt_km": 420.85052000483665,
        "timestamp": "2025-12-09T14:52:24.959037+00:00",
        "meta_object_name": "HTV-X1",
        "meta_object_id": "2025-241A",
        "meta_epoch": "2025-12-09T04:29:48.234912",
        "meta_mean_motion": 15.4943846,
        "meta_eccentricity": 0.00033664,
        "meta_inclination": 51.6308,
        "meta_ra_of_asc_node": 160.0685,
        "meta_arg_of_pericenter": 223.6321,
        "meta_mean_anomaly": 136.4401,
        "meta_ephemeris_type": 0,
        "meta_classification_type": "U",
        "meta_norad_cat_id": 66174,
        "meta_element_set_no": 999,
        "meta_rev_at_epoch": 51,
        "meta_bstar": 0.0002526091,
        "meta_mean_motion_dot": 0.00013707,
        "meta_mean_motion_ddot": 0,
        "tle_line1": "1 66174U 25241A   25343.18736383  .00013707  00000+0  25261-3 0  9990",
        "tle_line2": "2 66174  51.6308 160.0685 0003366 223.6321 136.4401 15.49438460   511"
      },
      "geometry": {
        "type": "Point",
        "coordinates": [
          42.387166563355855,
          -48.714213572622704
        ]
      }
    },
    {
      "type": "Feature",
      "properties": {
        "norad_id": 66515,
        "name": "SZ-21 MODULE",
        "group": "stations",
        "lat": 35.826591755858615,
        "lon": 160.26610465747964,
        "alt_km": 377.7715820609674,
        "timestamp": "2025-12-09T14:52:24.959048+00:00",
        "meta_object_name": "SZ-21 MODULE",
        "meta_object_id": "2025-246C",
        "meta_epoch": "2025-12-09T05:09:56.835360",
        "meta_mean_motion": 15.62223553,
        "meta_eccentricity": 0.00062826,
        "meta_inclination": 41.4773,
        "meta_ra_of_asc_node": 37.5424,
        "meta_arg_of_pericenter": 241.0117,
        "meta_mean_anomaly": 119.0093,
        "meta_ephemeris_type": 0,
        "meta_classification_type": "U",
        "meta_norad_cat_id": 66515,
        "meta_element_set_no": 999,
        "meta_rev_at_epoch": 389,
        "meta_bstar": 0.00035922039,
        "meta_mean_motion_dot": 0.00032371,
        "meta_mean_motion_ddot": 0,
        "tle_line1": "1 66515U 25246C   25343.21524115  .00032371  00000+0  35922-3 0  9999",
        "tle_line2": "2 66515  41.4773  37.5424 0006282 241.0117 119.0093 15.62223553  3897"
      },
      "geometry": {
        "type": "Point",
        "coordinates": [
          160.26610465747964,
          35.826591755858615
        ]
      }
    },
    {
      "type": "Feature",
      "properties": {
        "norad_id": 66645,
        "name": "SHENZHOU-22",
        "group": "stations",
        "lat": -37.40163302681708,
        "lon": -84.37730845306396,
        "alt_km": 396.4940281498557,
        "timestamp": "2025-12-09T14:52:24.959058+00:00",
        "meta_object_name": "SHENZHOU-22",
        "meta_object_id": "2025-272A",
        "meta_epoch": "2025-12-09T04:35:44.551104",
        "meta_mean_motion": 15.58940873,
        "meta_eccentricity": 0.00089717,
        "meta_inclination": 41.468,
        "meta_ra_of_asc_node": 38.2458,
        "meta_arg_of_pericenter": 2.1097,
        "meta_mean_anomaly": 357.9778,
        "meta_ephemeris_type": 0,
        "meta_classification_type": "U",
        "meta_norad_cat_id": 66645,
        "meta_element_set_no": 999,
        "meta_rev_at_epoch": 26300,
        "meta_bstar": 0.00038224086,
        "meta_mean_motion_dot": 0.00030369,
        "meta_mean_motion_ddot": 0,
        "tle_line1": "1 66645U 25272A   25343.19148786  .00030369  00000+0  38224-3 0  9998",
        "tle_line2": "2 66645  41.4680  38.2458 0008971   2.1097 357.9778 15.58940873263003"
      },
      "geometry": {
        "type": "Point",
        "coordinates": [
          -84.37730845306396,
          -37.40163302681708
        ]
      }
    },
    {
      "type": "Feature",
      "properties": {
        "norad_id": 66664,
        "name": "SOYUZ-MS 28",
        "group": "stations",
        "lat": -48.71421424859309,
        "lon": 42.38716941487778,
        "alt_km": 420.850520062947,
        "timestamp": "2025-12-09T14:52:24.959068+00:00",
        "meta_object_name": "SOYUZ-MS 28",
        "meta_object_id": "2025-275A",
        "meta_epoch": "2025-12-09T04:29:48.234912",
        "meta_mean_motion": 15.4943846,
        "meta_eccentricity": 0.00033664,
        "meta_inclination": 51.6308,
        "meta_ra_of_asc_node": 160.0685,
        "meta_arg_of_pericenter": 223.6321,
        "meta_mean_anomaly": 136.4401,
        "meta_ephemeris_type": 0,
        "meta_classification_type": "U",
        "meta_norad_cat_id": 66664,
        "meta_element_set_no": 999,
        "meta_rev_at_epoch": 128,
        "meta_bstar": 0.0002526091,
        "meta_mean_motion_dot": 0.00013707,
        "meta_mean_motion_ddot": 0,
        "tle_line1": "1 66664U 25275A   25343.18736383  .00013707  00000+0  25261-3 0  9991",
        "tle_line2": "2 66664  51.6308 160.0685 0003366 223.6321 136.4401 15.49438460  1280"
      },
      "geometry": {
        "type": "Point",
        "coordinates": [
          42.38716941487778,
          -48.71421424859309
        ]
      }
    },
    {
      "type": "Feature",
      "properties": {
        "norad_id": 66906,
        "name": "1998-067XS",
        "group": "stations",
        "lat": -51.54872034459134,
        "lon": 71.67619361540947,
        "alt_km": 420.1393996567931,
        "timestamp": "2025-12-09T14:52:24.959078+00:00",
        "meta_object_name": "1998-067XS",
        "meta_object_id": "1998-067XS",
        "meta_epoch": "2025-12-08T22:13:59.028960",
        "meta_mean_motion": 15.50272351,
        "meta_eccentricity": 0.0004021,
        "meta_inclination": 51.6297,
        "meta_ra_of_asc_node": 161.3264,
        "meta_arg_of_pericenter": 185.5281,
        "meta_mean_anomaly": 174.5664,
        "meta_ephemeris_type": 0,
        "meta_classification_type": "U",
        "meta_norad_cat_id": 66906,
        "meta_element_set_no": 999,
        "meta_rev_at_epoch": 102,
        "meta_bstar": 0.000538,
        "meta_mean_motion_dot": 0.0003067,
        "meta_mean_motion_ddot": 0,
        "tle_line1": "1 66906U 98067XS  25342.92637765  .00030670  00000+0  53800-3 0  9992",
        "tle_line2": "2 66906  51.6297 161.3264 0004021 185.5281 174.5664 15.50272351  1026"
      },
      "geometry": {
        "type": "Point",
        "coordinates": [
          71.67619361540947,
          -51.54872034459134
        ]
      }
    },
    {
      "type": "Feature",
      "properties": {
        "norad_id": 66907,
        "name": "1998-067XT",
        "group": "stations",
        "lat": -50.63143438200138,
        "lon": 82.9352498711494,
        "alt_km": 417.6845193864756,
        "timestamp": "2025-12-09T14:52:24.959089+00:00",
        "meta_object_name": "1998-067XT",
        "meta_object_id": "1998-067XT",
        "meta_epoch": "2025-12-08T19:06:53.694720",
        "meta_mean_motion": 15.50762002,
        "meta_eccentricity": 0.00049716,
        "meta_inclination": 51.6302,
        "meta_ra_of_asc_node": 161.9586,
        "meta_arg_of_pericenter": 204.3216,
        "meta_mean_anomaly": 155.7539,
        "meta_ephemeris_type": 0,
        "meta_classification_type": "U",
        "meta_norad_cat_id": 66907,
        "meta_element_set_no": 999,
        "meta_rev_at_epoch": 100,
        "meta_bstar": 0.0012614232,
        "meta_mean_motion_dot": 0.00074227,
        "meta_mean_motion_ddot": 0,
        "tle_line1": "1 66907U 98067XT  25342.79645480  .00074227  00000+0  12614-2 0  9994",
        "tle_line2": "2 66907  51.6302 161.9586 0004971 204.3216 155.7539 15.50762002  1006"
      },
      "geometry": {
        "type": "Point",
        "coordinates": [
          82.9352498711494,
          -50.63143438200138
        ]
      }
    }
  ]
}